{"type": "FeatureCollection", "features": [{"type": "Feature", "id": "15009", "properties": {"name": "Maui"}, "geometry": {"type": "MultiPolygon", "coordinates": [[[[-156.6999, 20.9206], [-156.68195, 20.97988], [-156.64247, 21.02799], [-156.59222, 21.03314], [-156.54556, 21.00479], [-156.50966, 20.93778], [-156.47377, 20.89483], [-156.38763, 20.91974], [-156.32302, 20.94981], [-156.2297, 20.93177], [-156.2297, 20.91803], [-156.16868, 20.87421], [-156.13279, 20.86133], [-156.11484, 20.82697], [-156.00357, 20.79518], [-155.98563, 20.76769], [-155.98563, 20.72302], [-156.01434, 20.68608], [-156.061, 20.65172], [-156.08254, 20.65429], [-156.14355, 20.62337], [-156.1938, 20.63196], [-156.30148, 20.58643], [-156.37686, 20.5787], [-156.43788, 20.60103], [-156.463, 20.78144], [-156.48813, 20.79862], [-156.53838, 20.778], [-156.6317, 20.82095], [-156.67836, 20.87078], [-156.6999, 20.9206]]], [[[-156.70348, 20.53231], [-156.67836, 20.55722], [-156.57786, 20.60619], [-156.54197, 20.58042], [-156.55632, 20.54262], [-156.53838, 20.52801], [-156.58504, 20.51169], [-156.60298, 20.52458], [-156.66759, 20.50482], [-156.70348, 20.53231]]], [[[-157.06241, 20.90428], [-157.03729, 20.92748], [-156.99063, 20.93177], [-156.89731, 20.91545], [-156.83629, 20.8639], [-156.80757, 20.82009], [-156.83988, 20.76425], [-156.90807, 20.73934], [-156.96909, 20.73505], [-156.99422, 20.78659], [-157.00499, 20.8493], [-157.05524, 20.87679], [-157.06241, 20.90428]]], [[[-157.01575, 21.18519], [-156.94038, 21.16028], [-156.91884, 21.12935], [-156.89731, 21.14739], [-156.91884, 21.16801], [-156.86859, 21.16458], [-156.77168, 21.18004], [-156.71066, 21.15856], [-156.73938, 21.11131], [-156.80398, 21.0675], [-156.87577, 21.04946], [-157.0014, 21.07695], [-157.09472, 21.10358], [-157.14856, 21.09156], [-157.25265, 21.08726], [-157.31008, 21.10186], [-157.28854, 21.14654], [-157.25624, 21.17145], [-157.26341, 21.22127], [-157.2024, 21.21956], [-157.19163, 21.20753], [-157.01575, 21.18519]]]]}}]}